{"spkid": "50309116", "covariance": {"labels": ["e", "q", "tp", "node", "peri", "i"], "data": [["1.051819720984322E-12", "-2.681587037463435E-12", "7.482869341822741E-11", "8.820380347057507E-10", "-1.094565470961179E-9", "-1.313858705156623E-11"], ["-2.681587037463435E-12", "6.836705893952216E-12", "-1.912546078125641E-10", "-2.24930514693025E-9", "2.791018417510122E-9", "3.352973177814553E-11"], ["7.482869341822741E-11", "-1.912546078125641E-10", "8.922322885572231E-9", "6.755552622960498E-8", "-8.170534365775E-8", "-1.191837569571678E-9"], ["8.820380347057507E-10", "-2.24930514693025E-9", "6.755552622960498E-8", "2.030138534148586E-6", "-2.204007386662037E-6", "-2.690897516030382E-8"], ["-1.094565470961179E-9", "2.791018417510122E-9", "-8.170534365775E-8", "-2.204007386662037E-6", "2.421183463215259E-6", "2.945264166972922E-8"], ["-1.313858705156623E-11", "3.352973177814553E-11", "-1.191837569571678E-9", "-2.690897516030382E-8", "2.945264166972922E-8", "4.369191143408118E-10"]], "elements": [{"units": null, "title": "eccentricity", "value": ".8399907049963038", "name": "e", "sigma": 1.02558262513769e-06, "label": "e"}, {"label": "q", "units": "au", "value": ".4084717268631828", "title": "perihelion distance", "name": "q", "sigma": 2.61470952381947e-06}, {"label": "tp", "units": "TDB", "title": "time of perihelion passage", "value": "2453662.251257255086", "name": "tp", "sigma": 9.4458048283734e-05}, {"name": "om", "sigma": 0.00142482930000354, "title": "longitude of the ascending node", "value": "2.770464882508768", "units": "deg", "label": "node"}, {"name": "w", "sigma": 0.00155601525160111, "units": "deg", "value": "340.8335149921145", "title": "argument of perihelion", "label": "peri"}, {"label": "i", "sigma": 2.09026102279311e-05, "name": "i", "units": "deg", "value": "3.082249274561594", "title": "inclination"}], "epoch": "2454168.5"}, "elements": [{"label": "e", "sigma": "7.6481E-7", "name": "e", "units": null, "title": "eccentricity", "value": ".8409651730180021"}, {"sigma": "7.3912E-7", "name": "a", "units": "au", "title": "semi-major axis", "value": "2.553371534858359", "label": "a"}, {"label": "q", "units": "au", "title": "perihelion distance", "value": ".4060750002669575", "sigma": "1.8375E-6", "name": "q"}, {"title": "inclination; angle with respect to x-y ecliptic plane", "value": "3.013171394046084", "units": "deg", "name": "i", "sigma": "1.2576E-5", "label": "i"}, {"title": "longitude of the ascending node", "value": "2.506712329119339", "units": "deg", "sigma": ".00129", "name": "om", "label": "node"}, {"label": "peri", "title": "argument of perihelion", "value": "341.4745474394856", "units": "deg", "name": "w", "sigma": ".0014214"}, {"label": "M", "sigma": ".00047273", "name": "ma", "units": "deg", "value": "17.55468043189729", "title": "mean anomaly"}, {"sigma": ".0019254", "name": "tp", "units": "TDB", "value": "2461127.829211438686", "title": "time of perihelion passage", "label": "tp"}, {"sigma": ".00064709", "name": "per", "value": "1490.285396169156", "title": "sidereal orbital period", "units": "d", "label": "period"}, {"label": "n", "name": "n", "sigma": "1.0489E-7", "units": "deg/d", "title": "mean motion", "value": ".2415644687422932"}, {"label": "Q", "sigma": "1.3607E-6", "name": "ad", "value": "4.700668069449761", "title": "aphelion distance", "units": "au"}], "epoch": "2461200.5"}